SAUDISAT 1C (SO-50)     
1 27607U 02058C   26195.33002808  .00000387  00000+0  63645-4 0  9999
2 27607  64.5518  45.0024 0074555 257.4262 101.8498 14.83097490268486
SAUDISAT 2              
1 28371U 04025F   26195.57324666  .00000100  00000+0  33517-4 0  9997
2 28371  98.5521 196.2643 0024029 210.1532 149.8283 14.56698056169736
SAUDISAT 3              
1 31118U 07012B   26195.39143932  .00000101  00000+0  24440-4 0  9990
2 31118  98.1468 145.8120 0015555 137.1273 223.1150 14.71440078 31743
PISAT                   
1 41784U 16059B   26195.52606584  .00000454  00000+0  84878-4 0  9995
2 41784  97.8191 194.8056 0030425 116.8788 243.5534 14.69028974523755
FLYING LAPTOP           
1 42831U 17042G   26195.58021759  .00002177  00000+0  17302-3 0  9994
2 42831  97.4797 350.0817 0019729  34.5222 325.7279 15.01310930490565
SALSAT                  
1 46495U 20068K   26195.54877328  .00004163  00000+0  14541-3 0  9992
2 46495  97.8856 200.2874 0009148 195.2534 164.8431 15.30166467319545
