OBJECT_NAME,OBJECT_ID,EPOCH,MEAN_MOTION,ECCENTRICITY,INCLINATION,RA_OF_ASC_NODE,ARG_OF_PERICENTER,MEAN_ANOMALY,EPHEMERIS_TYPE,CLASSIFICATION_TYPE,NORAD_CAT_ID,ELEMENT_SET_NO,REV_AT_EPOCH,BSTAR,MEAN_MOTION_DOT,MEAN_MOTION_DDOT
SAUDISAT 1C (SO-50),2002-058C,2026-07-14T07:55:14.426112,14.83097490,.00745557,64.5518,45.0024,257.4262,101.8498,0,U,27607,999,26848,.63645031E-4,.387E-5,0
SAUDISAT 2,2004-025F,2026-07-14T13:45:28.511424,14.56698056,.00240295,98.5521,196.2643,210.1532,149.8283,0,U,28371,999,16973,.33517359E-4,.1E-5,0
SAUDISAT 3,2007-012B,2026-07-14T09:23:40.357248,14.71440078,.00155553,98.1468,145.8120,137.1273,223.1150,0,U,31118,999,3174,.24439539E-4,.101E-5,0
PISAT,2016-059B,2026-07-14T12:37:32.088576,14.69028974,.00304256,97.8191,194.8056,116.8788,243.5534,0,U,41784,999,52375,.8487794E-4,.454E-5,0
FLYING LAPTOP,2017-042G,2026-07-14T13:55:30.799776,15.01310930,.0019729,97.4797,350.0817,34.5222,325.7279,0,U,42831,999,49056,.17301974E-3,.2177E-4,0
SALSAT,2020-068K,2026-07-14T13:10:14.011392,15.30166467,.00091482,97.8856,200.2874,195.2534,164.8431,0,U,46495,999,31954,.1454086E-3,.4163E-4,0
